0 DELTA 2 R/B(1)
1 25359U 98035B   13282.34669120  .00000094  00000-0 -27735-4 0  3802
2 25359 026.3864 221.3082 0513920 180.2455 329.8017 12.94386379726061
0 DELTA 2 R/B(1)
1 25359U 98035B   13287.20927674  .00000133  00000-0  43493-4 0  3827
2 25359 026.3868 198.2950 0513986 218.9314 308.4309 12.94386053726691
0 DELTA 2 R/B(1)
1 25359U 98035B   13289.20983731  .00000133  00000-0  42911-4 0  3830
2 25359 026.3867 188.8268 0513993 234.8420 270.6283 12.94386258726957
0 DELTA 2 R/B(1)
1 25359U 98035B   13291.21766156  .00000109  00000-0 -20155-5 0  3846
2 25359 026.3863 179.3244 0514028 250.8166 266.6664 12.94386376727216
0 DELTA 2 R/B(1)
1 25359U 98035B   13293.82542390  .00000103  00000-0 -12268-4 0  3857
2 25359 026.3848 166.9773 0513921 271.5602 178.3013 12.94386297727550
0 DELTA 2 R/B(1)
1 25359U 98035B   13296.15416111  .00000096  00000-0 -20530-4 0  3860
2 25359 026.3852 155.9604 0513991 290.0938 229.7177 12.94386247727851
